SOYUZ-MS 28             
1 66664U 25275A   26197.86314870  .00003748  00000+0  76099-4 0  9997
2 66664  51.6311 153.2312 0006736 304.1301  55.9047 15.49027546575547
CREW DRAGON 12          
1 67796U 26031A   26197.86314870  .00003748  00000+0  76099-4 0  9995
2 67796  51.6311 153.2312 0006736 304.1301  55.9047 15.49027546575500
SHENZHOU-23 (SZ-23)     
1 69180U 26113A   26197.56097431  .00001173  00000+0  19394-4 0  9998
2 69180  41.4698 143.5547 0002175 301.3971  58.6654 15.58128282296874
