{"fetched_at":"2026-07-17T06:38:02.036Z","source":"https://celestrak.org/NORAD/elements/gp.php?GROUP=stations&FORMAT=JSON","constellation":"crewed-vehicles","records":[{"OBJECT_NAME":"SOYUZ-MS 28","OBJECT_ID":"2025-275A","EPOCH":"2026-07-16T20:42:56.047680","CLASSIFICATION_TYPE":"U","MEAN_MOTION":15.49027546,"ECCENTRICITY":0.0006736,"INCLINATION":51.6311,"RA_OF_ASC_NODE":153.2312,"ARG_OF_PERICENTER":304.1301,"MEAN_ANOMALY":55.9047,"EPHEMERIS_TYPE":0,"NORAD_CAT_ID":66664,"ELEMENT_SET_NO":999,"REV_AT_EPOCH":57554,"BSTAR":0.000076099,"MEAN_MOTION_DOT":0.00003748,"MEAN_MOTION_DDOT":0},{"OBJECT_NAME":"CREW DRAGON 12","OBJECT_ID":"2026-031A","EPOCH":"2026-07-16T20:42:56.047680","CLASSIFICATION_TYPE":"U","MEAN_MOTION":15.49027546,"ECCENTRICITY":0.0006736,"INCLINATION":51.6311,"RA_OF_ASC_NODE":153.2312,"ARG_OF_PERICENTER":304.1301,"MEAN_ANOMALY":55.9047,"EPHEMERIS_TYPE":0,"NORAD_CAT_ID":67796,"ELEMENT_SET_NO":999,"REV_AT_EPOCH":57550,"BSTAR":0.000076099,"MEAN_MOTION_DOT":0.00003748,"MEAN_MOTION_DDOT":0},{"OBJECT_NAME":"SHENZHOU-23 (SZ-23)","OBJECT_ID":"2026-113A","EPOCH":"2026-07-16T13:27:48.180384","CLASSIFICATION_TYPE":"U","MEAN_MOTION":15.58128282,"ECCENTRICITY":0.00021757,"INCLINATION":41.4698,"RA_OF_ASC_NODE":143.5547,"ARG_OF_PERICENTER":301.3971,"MEAN_ANOMALY":58.6654,"EPHEMERIS_TYPE":0,"NORAD_CAT_ID":69180,"ELEMENT_SET_NO":999,"REV_AT_EPOCH":29687,"BSTAR":0.00001939437,"MEAN_MOTION_DOT":0.00001173,"MEAN_MOTION_DDOT":0}]}
